{
  "type": "FeatureCollection",
  "features": [
    {
      "type": "Feature",
      "properties": {
        "norad_id": 66878,
        "name": "STARLINK-35866",
        "group": "last-30-days",
        "lat": 10.498793784801958,
        "lon": 9.870115392011092,
        "alt_km": 406.9617801196864,
        "timestamp": "2025-12-27T05:29:37.917950+00:00",
        "meta_object_name": "STARLINK-35866",
        "meta_object_id": "2025-283A",
        "meta_epoch": "2025-12-26T22:00:01.999584",
        "meta_mean_motion": 15.54470234,
        "meta_eccentricity": 0.00010439,
        "meta_inclination": 53.1594,
        "meta_ra_of_asc_node": 3.387,
        "meta_arg_of_pericenter": 83.7598,
        "meta_mean_anomaly": 342.064,
        "meta_ephemeris_type": 0,
        "meta_classification_type": "U",
        "meta_norad_cat_id": 66878,
        "meta_element_set_no": 999,
        "meta_rev_at_epoch": 470,
        "meta_bstar": -0.033264683,
        "meta_mean_motion_dot": -0.01993043,
        "meta_mean_motion_ddot": 0,
        "tle_line1": "1 66878U 25283A   25360.91668981 -.01993043  00000+0 -33265-1 0  9999",
        "tle_line2": "2 66878  53.1594   3.3870 0001043  83.7598 342.0640 15.54470234  4708"
      },
      "geometry": {
        "type": "Point",
        "coordinates": [
          9.870115392011092,
          10.498793784801958
        ]
      }
    },
    {
      "type": "Feature",
      "properties": {
        "norad_id": 66879,
        "name": "STARLINK-35749",
        "group": "last-30-days",
        "lat": 13.52641065482872,
        "lon": 12.265602928662004,
        "alt_km": 406.40796393381333,
        "timestamp": "2025-12-27T05:29:37.917960+00:00",
        "meta_object_name": "STARLINK-35749",
        "meta_object_id": "2025-283B",
        "meta_epoch": "2025-12-26T22:00:01.999584",
        "meta_mean_motion": 15.54466745,
        "meta_eccentricity": 0.00011809,
        "meta_inclination": 53.1596,
        "meta_ra_of_asc_node": 3.3782,
        "meta_arg_of_pericenter": 82.5796,
        "meta_mean_anomaly": 347.0779,
        "meta_ephemeris_type": 0,
        "meta_classification_type": "U",
        "meta_norad_cat_id": 66879,
        "meta_element_set_no": 999,
        "meta_rev_at_epoch": 470,
        "meta_bstar": -0.033158013,
        "meta_mean_motion_dot": -0.01987165,
        "meta_mean_motion_ddot": 0,
        "tle_line1": "1 66879U 25283B   25360.91668981 -.01987165  00000+0 -33158-1 0  9999",
        "tle_line2": "2 66879  53.1596   3.3782 0001180  82.5796 347.0779 15.54466745  4702"
      },
      "geometry": {
        "type": "Point",
        "coordinates": [
          12.265602928662004,
          13.52641065482872
        ]
      }
    },
    {
      "type": "Feature",
      "properties": {
        "norad_id": 66880,
        "name": "STARLINK-35844",
        "group": "last-30-days",
        "lat": 12.01645478386888,
        "lon": 11.062591172150958,
        "alt_km": 406.7088669266277,
        "timestamp": "2025-12-27T05:29:37.917973+00:00",
        "meta_object_name": "STARLINK-35844",
        "meta_object_id": "2025-283C",
        "meta_epoch": "2025-12-26T22:00:01.999584",
        "meta_mean_motion": 15.54469743,
        "meta_eccentricity": 0.00010252,
        "meta_inclination": 53.1596,
        "meta_ra_of_asc_node": 3.3831,
        "meta_arg_of_pericenter": 83.1235,
        "meta_mean_anomaly": 344.6173,
        "meta_ephemeris_type": 0,
        "meta_classification_type": "U",
        "meta_norad_cat_id": 66880,
        "meta_element_set_no": 999,
        "meta_rev_at_epoch": 470,
        "meta_bstar": -0.033247474,
        "meta_mean_motion_dot": -0.01992076,
        "meta_mean_motion_ddot": 0,
        "tle_line1": "1 66880U 25283C   25360.91668981 -.01992076  00000+0 -33247-1 0  9997",
        "tle_line2": "2 66880  53.1596   3.3831 0001025  83.1235 344.6173 15.54469743  4704"
      },
      "geometry": {
        "type": "Point",
        "coordinates": [
          11.062591172150958,
          12.01645478386888
        ]
      }
    },
    {
      "type": "Feature",
      "properties": {
        "norad_id": 66881,
        "name": "STARLINK-35860",
        "group": "last-30-days",
        "lat": 15.033296241366523,
        "lon": 13.487568905736262,
        "alt_km": 406.1306870342951,
        "timestamp": "2025-12-27T05:29:37.917983+00:00",
        "meta_object_name": "STARLINK-35860",
        "meta_object_id": "2025-283D",
        "meta_epoch": "2025-12-26T22:00:01.999584",
        "meta_mean_motion": 15.54471194,
        "meta_eccentricity": 0.00011545,
        "meta_inclination": 53.1599,
        "meta_ra_of_asc_node": 3.3747,
        "meta_arg_of_pericenter": 79.7232,
        "meta_mean_anomaly": 351.8487,
        "meta_ephemeris_type": 0,
        "meta_classification_type": "U",
        "meta_norad_cat_id": 66881,
        "meta_element_set_no": 999,
        "meta_rev_at_epoch": 470,
        "meta_bstar": -0.03327562,
        "meta_mean_motion_dot": -0.01993756,
        "meta_mean_motion_ddot": 0,
        "tle_line1": "1 66881U 25283D   25360.91668981 -.01993756  00000+0 -33276-1 0  9996",
        "tle_line2": "2 66881  53.1599   3.3747 0001154  79.7232 351.8487 15.54471194  4706"
      },
      "geometry": {
        "type": "Point",
        "coordinates": [
          13.487568905736262,
          15.033296241366523
        ]
      }
    },
    {
      "type": "Feature",
      "properties": {
        "norad_id": 66882,
        "name": "STARLINK-35912",
        "group": "last-30-days",
        "lat": 16.534101785896713,
        "lon": 14.728028506387508,
        "alt_km": 405.92491140832317,
        "timestamp": "2025-12-27T05:29:37.917992+00:00",
        "meta_object_name": "STARLINK-35912",
        "meta_object_id": "2025-283E",
        "meta_epoch": "2025-12-26T22:00:01.999584",
        "meta_mean_motion": 15.54469492,
        "meta_eccentricity": 0.00011234,
        "meta_inclination": 53.159,
        "meta_ra_of_asc_node": 3.3713,
        "meta_arg_of_pericenter": 83.5154,
        "meta_mean_anomaly": 349.9759,
        "meta_ephemeris_type": 0,
        "meta_classification_type": "U",
        "meta_norad_cat_id": 66882,
        "meta_element_set_no": 999,
        "meta_rev_at_epoch": 470,
        "meta_bstar": -0.033255209,
        "meta_mean_motion_dot": -0.01992531,
        "meta_mean_motion_ddot": 0,
        "tle_line1": "1 66882U 25283E   25360.91668981 -.01992531  00000+0 -33255-1 0  9994",
        "tle_line2": "2 66882  53.1590   3.3713 0001123  83.5154 349.9759 15.54469492  4701"
      },
      "geometry": {
        "type": "Point",
        "coordinates": [
          14.728028506387508,
          16.534101785896713
        ]
      }
    },
    {
      "type": "Feature",
      "properties": {
        "norad_id": 66883,
        "name": "STARLINK-35947",
        "group": "last-30-days",
        "lat": 18.027673391290737,
        "lon": 15.986942263612065,
        "alt_km": 405.71922312580773,
        "timestamp": "2025-12-27T05:29:37.918022+00:00",
        "meta_object_name": "STARLINK-35947",
        "meta_object_id": "2025-283F",
        "meta_epoch": "2025-12-26T22:00:01.999584",
        "meta_mean_motion": 15.54466248,
        "meta_eccentricity": 0.00010577,
        "meta_inclination": 53.1595,
        "meta_ra_of_asc_node": 3.3673,
        "meta_arg_of_pericenter": 87.0034,
        "meta_mean_anomaly": 348.4068,
        "meta_ephemeris_type": 0,
        "meta_classification_type": "U",
        "meta_norad_cat_id": 66883,
        "meta_element_set_no": 999,
        "meta_rev_at_epoch": 475,
        "meta_bstar": -0.033156901,
        "meta_mean_motion_dot": -0.01987002,
        "meta_mean_motion_ddot": 0,
        "tle_line1": "1 66883U 25283F   25360.91668981 -.01987002  00000+0 -33157-1 0  9993",
        "tle_line2": "2 66883  53.1595   3.3673 0001057  87.0034 348.4068 15.54466248  4752"
      },
      "geometry": {
        "type": "Point",
        "coordinates": [
          15.986942263612065,
          18.027673391290737
        ]
      }
    },
    {
      "type": "Feature",
      "properties": {
        "norad_id": 66884,
        "name": "STARLINK-36057",
        "group": "last-30-days",
        "lat": 20.98897324707259,
        "lon": 18.571881788245932,
        "alt_km": 405.26931811211034,
        "timestamp": "2025-12-27T05:29:37.918035+00:00",
        "meta_object_name": "STARLINK-36057",
        "meta_object_id": "2025-283G",
        "meta_epoch": "2025-12-26T22:00:01.999584",
        "meta_mean_motion": 15.54471365,
        "meta_eccentricity": 9.185e-05,
        "meta_inclination": 53.1594,
        "meta_ra_of_asc_node": 3.359,
        "meta_arg_of_pericenter": 95.8249,
        "meta_mean_anomaly": 343.4178,
        "meta_ephemeris_type": 0,
        "meta_classification_type": "U",
        "meta_norad_cat_id": 66884,
        "meta_element_set_no": 999,
        "meta_rev_at_epoch": 470,
        "meta_bstar": -0.033296793,
        "meta_mean_motion_dot": -0.01994769,
        "meta_mean_motion_ddot": 0,
        "tle_line1": "1 66884U 25283G   25360.91668981 -.01994769  00000+0 -33297-1 0  9997",
        "tle_line2": "2 66884  53.1594   3.3590 0000918  95.8249 343.4178 15.54471365  4708"
      },
      "geometry": {
        "type": "Point",
        "coordinates": [
          18.571881788245932,
          20.98897324707259
        ]
      }
    }
  ]
}